{"geometry":{"coordinates":[[[[170.105553632,-44.17765051],[170.105905056,-44.171210547],[170.106126245,-44.171125961],[170.112051588,-44.171276029],[170.111730365,-44.177852067],[170.105766026,-44.17774609],[170.105553632,-44.17765051]]],[[[170.088010151,-44.170705372],[170.087977257,-44.170683353],[170.08802205,-44.169773762],[170.088057027,-44.169753475],[170.088024133,-44.169731456],[170.088054341,-44.16911801],[170.088089318,-44.169097723],[170.088056424,-44.169075704],[170.088064757,-44.168906477],[170.088099734,-44.16888619],[170.08806684,-44.168864171],[170.088068923,-44.168821864],[170.0881039,-44.168801577],[170.088071007,-44.168779558],[170.088096005,-44.168271879],[170.088130981,-44.168251591],[170.088098088,-44.168229572],[170.088115795,-44.167869966],[170.088151813,-44.167828525],[170.08811892,-44.167806506],[170.088127252,-44.16763728],[170.088162228,-44.167616992],[170.088129335,-44.167594973],[170.088134543,-44.167489207],[170.08817056,-44.167447766],[170.088137667,-44.167425747],[170.088172643,-44.167405459],[170.088182017,-44.16721508],[170.088149124,-44.167193061],[170.0881841,-44.167172773],[170.088186183,-44.167130467],[170.08815329,-44.167108448],[170.088188266,-44.16708816],[170.088285121,-44.165120903],[170.08825223,-44.165098884],[170.088287204,-44.165078596],[170.088297618,-44.164867063],[170.088264727,-44.164845044],[170.088299701,-44.164824757],[170.088320529,-44.164401691],[170.088287637,-44.164379672],[170.088322611,-44.164359384],[170.088327818,-44.164253617],[170.094299961,-44.164405801],[170.094132631,-44.167811501],[170.094165526,-44.167833518],[170.094130552,-44.167853808],[170.094162408,-44.167896978],[170.094127434,-44.167917268],[170.09415929,-44.167960439],[170.094123276,-44.168001881],[170.094119118,-44.168086495],[170.094152014,-44.168108512],[170.094146817,-44.168214279],[170.094111842,-44.168234569],[170.094109763,-44.168276876],[170.094142659,-44.168298893],[170.094107684,-44.168319182],[170.094099369,-44.16848841],[170.094132265,-44.168510427],[170.09409729,-44.168530717],[170.094083777,-44.168805711],[170.094116673,-44.168827728],[170.094080659,-44.168869171],[170.09407858,-44.168911478],[170.094111476,-44.168933495],[170.094075461,-44.168974938],[170.094073382,-44.169017245],[170.094106278,-44.169039262],[170.094071303,-44.169059552],[170.09410316,-44.169102722],[170.094067146,-44.169144165],[170.094052241,-44.169620333],[170.094000298,-44.16964019],[170.093917537,-44.169595723],[170.093874598,-44.16960522],[170.09377487,-44.169560321],[170.093764827,-44.169591835],[170.093714963,-44.169569386],[170.093647091,-44.169567658],[170.093543205,-44.169607372],[170.093533161,-44.169638886],[170.093632889,-44.169683785],[170.093664746,-44.169726956],[170.093733657,-44.169707531],[170.093833385,-44.16975243],[170.09384031,-44.169784376],[170.093890174,-44.169806825],[170.094008949,-44.169809849],[170.094041846,-44.169831867],[170.093981904,-44.170878744],[170.090656138,-44.170794024],[170.090621161,-44.170814313],[170.090095148,-44.170800904],[170.090045284,-44.170778453],[170.090010307,-44.170798741],[170.089738817,-44.17079182],[170.089688953,-44.170769368],[170.089653976,-44.170789656],[170.088084945,-44.17073905],[170.088049967,-44.170759338],[170.087975174,-44.17072566],[170.088010151,-44.170705372]],[[170.09252133,-44.169486038],[170.09252341,-44.169443732],[170.092480471,-44.169453228],[170.092479431,-44.169474381],[170.09252133,-44.169486038]],[[170.093903131,-44.165221714],[170.09390521,-44.165179407],[170.093940183,-44.165159118],[170.093884438,-44.165083569],[170.093858468,-44.165093498],[170.093890322,-44.165136668],[170.093863313,-44.16516775],[170.093861235,-44.165210057],[170.093903131,-44.165221714]]],[[[170.070388879,-44.161084547],[170.070476327,-44.161033839],[170.070481565,-44.16092807],[170.070399355,-44.160873008],[170.070597342,-44.157303834],[170.076684761,-44.157433422],[170.076360659,-44.163991161],[170.076193607,-44.16393393],[170.076106159,-44.163984642],[170.070379918,-44.163837816],[170.070257908,-44.163728781],[170.070388879,-44.161084547]]]],"type":"MultiPolygon"},"type":"Feature","properties":{"identifier":{"@type":"PropertyValue","propertyID":"opentopoID","value":"OTLAS.122022.2193.2"},"name":"Canterbury, New Zealand 2020-2025_Temp","alternateName":"NZ20_Cant2_Temp"}}