{"geometry":{"coordinates":[[[-77.613389,37.56709],[-77.624982,37.546016],[-77.618262,37.525529],[-77.600011,37.515133],[-77.563155,37.518084],[-77.54947,37.511169],[-77.532669,37.463197],[-77.506206,37.441767],[-77.48063,37.437973],[-77.45539,37.445468],[-77.433746,37.431147],[-77.412597,37.430101],[-77.398493,37.438303],[-77.402733,37.482863],[-77.3977,37.489672],[-77.376723,37.492818],[-77.360825,37.530706],[-77.367367,37.548106],[-77.375657,37.54836],[-77.375682,37.561795],[-77.388538,37.565261],[-77.392524,37.589563],[-77.417894,37.599961],[-77.420129,37.612615],[-77.45278,37.621223],[-77.466172,37.614032],[-77.491307,37.614562],[-77.500509,37.597115],[-77.508803,37.597243],[-77.517195,37.607864],[-77.543821,37.608271],[-77.561007,37.594255],[-77.569851,37.57443],[-77.600245,37.574326],[-77.613389,37.56709]],[[-77.422236,37.442485],[-77.422236,37.442572],[-77.422099,37.442507],[-77.422236,37.442485]],[[-77.422696,37.442464],[-77.422883,37.442572],[-77.422646,37.442636],[-77.422696,37.442464]],[[-77.37309,37.503505],[-77.373057,37.503486],[-77.37309,37.503467],[-77.37309,37.503505]],[[-77.375441,37.50456],[-77.375517,37.504579],[-77.375452,37.504617],[-77.375441,37.50456]],[[-77.417723,37.519485],[-77.417862,37.519485],[-77.417827,37.519545],[-77.417723,37.519485]],[[-77.464598,37.526222],[-77.4661,37.526346],[-77.464634,37.526532],[-77.464598,37.526222]],[[-77.4661,37.526965],[-77.466028,37.526965],[-77.4661,37.526841],[-77.4661,37.526965]],[[-77.481584,37.528667],[-77.481365,37.528743],[-77.481365,37.528591],[-77.481584,37.528667]],[[-77.536956,37.561384],[-77.537405,37.561273],[-77.537341,37.561606],[-77.536956,37.561384]]],"type":"Polygon"},"type":"Feature","properties":{"identifier":{"@type":"PropertyValue","propertyID":"noaaID","value":14835},"name":"2025 City of Richmond Lidar: Richmond, VA"}}