{"geometry":{"coordinates":[[[[-92.0253401,32.989407722],[-92.007373794,33.002457802],[-91.890592807,33.002457802],[-91.872626502,32.989407722],[-91.845677043,33.002457802],[-91.674997139,33.002457802],[-91.657030833,32.989407722],[-91.594148764,32.989407722],[-91.576182458,33.002457802],[-91.540249846,33.002457802],[-91.522283541,32.989407722],[-91.351603637,32.989407722],[-91.324654178,33.002457802],[-91.306687873,32.989407722],[-91.162957427,32.989407722],[-91.158465851,33.008981741],[-91.122533239,33.022028172],[-91.104566934,33.048115996],[-91.104566934,33.074196094],[-91.162957427,33.106785912],[-91.185415309,33.100268463],[-91.189906886,33.119817854],[-91.17194058,33.132848615],[-91.131516392,33.113302124],[-91.082109052,33.119817854],[-91.082109052,33.210990298],[-91.037193287,33.23702204],[-91.041684864,33.295564937],[-91.064142746,33.302067113],[-91.104566934,33.269550633],[-91.136007969,33.315070763],[-91.131516392,33.347570276],[-91.10905851,33.354068574],[-91.104566934,33.373561306],[-91.068634322,33.386554285],[-91.050668017,33.412533667],[-91.050668017,33.451487799],[-91.068634322,33.464469123],[-91.104566934,33.451487799],[-91.10905851,33.48393634],[-91.136007969,33.496912805],[-91.17194058,33.496912805],[-91.176432156,33.51637348],[-91.216856344,33.53582903],[-91.481859353,33.529344333],[-91.499825659,33.542313989],[-91.993899065,33.542313989],[-92.0253401,33.522859149],[-92.007373794,33.509886575],[-92.0253401,33.48393634],[-92.0253401,33.444996783],[-92.007373794,33.432012544],[-92.011865371,33.399544572],[-91.980424336,33.367064464],[-91.998390641,33.354068574],[-91.998390641,33.328071723],[-91.980424336,33.315070763],[-92.020848523,33.308568805],[-92.052289558,33.263046033],[-92.074747441,33.269550633],[-92.106188475,33.224006761],[-92.142121087,33.210990298],[-92.146612663,33.165415927],[-92.128646358,33.139362894],[-92.160087393,33.093751284],[-92.142121087,33.067676982],[-92.115171628,33.05463731],[-92.128646358,33.035073426],[-92.092713746,33.022028172],[-92.08822217,33.002457802],[-92.052289558,33.002457802],[-92.0253401,32.989407722]],[[-91.162957427,33.406038987],[-91.189906886,33.406038987],[-91.149482698,33.386554285],[-91.10905851,33.406038987],[-91.104566934,33.42552007],[-91.118041663,33.432012544],[-91.162957427,33.406038987]]]],"type":"MultiPolygon"},"type":"Feature","properties":{"identifier":{"@type":"PropertyValue","propertyID":"datasetId","value":"AR_Eastern_8_D23"},"name":"AR Eastern 8 D23"}}