{"geometry":{"coordinates":[[[[-91.111645658,34.186006618],[-91.057746741,34.173134359],[-91.039780435,34.186006618],[-91.012830977,34.173134359],[-90.985881518,34.186006618],[-90.95893206,34.173134359],[-90.89604999,34.173134359],[-90.891558414,34.192441639],[-90.922999448,34.2117445],[-90.918507872,34.231042941],[-90.891558414,34.205310952],[-90.855625802,34.205310952],[-90.869100531,34.186006618],[-90.842151073,34.173134359],[-90.824184767,34.263196687],[-90.797235309,34.276054449],[-90.761302697,34.263196687],[-90.729861662,34.295338147],[-90.729861662,34.321042612],[-90.761302697,34.35316194],[-90.743336392,34.366006672],[-90.70740378,34.35316194],[-90.702912204,34.308191734],[-90.653504863,34.301764815],[-90.649013287,34.372427929],[-90.613080675,34.372427929],[-90.59511437,34.398108775],[-90.572656488,34.391689487],[-90.554690182,34.417364425],[-90.554690182,34.455862425],[-90.58163964,34.455862425],[-90.586131217,34.487930046],[-90.527740723,34.545620851],[-90.5322323,34.577653949],[-90.572656488,34.596868181],[-90.568164911,34.628881534],[-90.586131217,34.654483473],[-90.568164911,34.680077507],[-90.545707029,34.686475334],[-90.572656488,34.648083914],[-90.541215453,34.61607797],[-90.460367077,34.654483473],[-90.464858654,34.686475334],[-90.446892348,34.699268028],[-90.464858654,34.712059482],[-90.433417619,34.756812149],[-90.464858654,34.788764447],[-90.446892348,34.801541312],[-90.446892348,34.839861498],[-90.473841806,34.85263044],[-90.478333383,34.871780874],[-90.460367077,34.884545599],[-90.437909195,34.878163116],[-90.433417619,34.820703633],[-90.397485007,34.820703633],[-90.352569243,34.846246216],[-90.316636632,34.833476284],[-90.285195597,34.878163116],[-90.249262985,34.89092685],[-90.23129668,34.916447632],[-90.23129668,34.954713564],[-90.285195597,34.98021451],[-90.303161902,35.005707518],[-90.303161902,35.031192584],[-90.339094514,35.031192584],[-90.357060819,35.043932506],[-90.384010278,35.031192584],[-90.419942889,35.031192584],[-90.437909195,35.043932506],[-90.464858654,35.031192584],[-90.491808112,35.043932506],[-91.444022313,35.043932506],[-91.461988619,35.056669706],[-92.104284047,35.050301354],[-92.108775624,35.005707518],[-92.077334589,34.999335194],[-92.077334589,34.807929739],[-92.095300894,34.795153127],[-92.090809318,34.724848221],[-92.108775624,34.712059482],[-92.104284047,34.654483473],[-92.122250353,34.641683861],[-92.122250353,34.61607797],[-92.036910401,34.609675447],[-92.036910401,34.19887617],[-92.000977789,34.19887617],[-91.983011484,34.186006618],[-91.556311724,34.192441639],[-91.538345418,34.179571105],[-91.502412807,34.179571105],[-91.484446501,34.192441639],[-91.457497043,34.179571105],[-91.111645658,34.186006618]],[[-90.505282841,34.718454099],[-90.5322323,34.731241848],[-90.545707029,34.724848221],[-90.514265994,34.705663633],[-90.505282841,34.718454099]]]],"type":"MultiPolygon"},"type":"Feature","properties":{"identifier":{"@type":"PropertyValue","propertyID":"datasetId","value":"AR_Eastern_9_D23"},"name":"AR Eastern 9 D23"}}