{"geometry":{"coordinates":[[[[-116.906230052,33.923004565],[-116.901738476,33.955275513],[-116.879280594,33.948822451],[-116.861314288,33.961728085],[-116.861314288,34.000434731],[-116.879280594,34.013332532],[-116.915213205,34.013332532],[-116.94665424,33.981083611],[-116.928687935,33.955275513],[-116.928687935,33.929459584],[-116.906230052,33.923004565]]],[[[-116.784957489,33.968180168],[-116.717583843,33.961728085],[-116.717583843,34.013332532],[-116.780465913,34.013332532],[-116.784957489,33.968180168]]],[[[-115.706979148,34.019781443],[-115.653080231,34.019781443],[-115.635113925,34.032676306],[-115.572231856,34.032676306],[-115.55426555,34.019781443],[-115.464434021,34.019781443],[-115.446467716,34.032676306],[-115.410535104,34.032676306],[-115.392568799,34.019781443],[-115.329686729,34.019781443],[-115.30273727,34.032676306],[-115.298245694,34.064905633],[-115.271296235,34.077794379],[-115.235363624,34.077794379],[-115.217397318,34.064905633],[-115.073666873,34.064905633],[-115.055700567,34.077794379],[-115.028751109,34.064905633],[-114.965869039,34.064905633],[-114.947902733,34.077794379],[-114.885020663,34.077794379],[-114.867054357,34.064905633],[-114.723323912,34.064905633],[-114.705357606,34.077794379],[-114.678408148,34.064905633],[-114.615526078,34.064905633],[-114.597559772,34.077794379],[-114.534677702,34.077794379],[-114.516711397,34.064905633],[-114.516711397,34.039123002],[-114.480778785,34.026229119],[-114.46281248,34.05201567],[-114.467304056,34.071350623],[-114.426879868,34.090680421],[-114.422388292,34.110006549],[-114.319082034,34.142206458],[-114.314590458,34.161520813],[-114.265183117,34.180830751],[-114.260691541,34.20013627],[-114.238233659,34.193701092],[-114.233742082,34.213003665],[-114.2112842,34.206570213],[-114.206792624,34.225869839],[-114.184334742,34.232301817],[-114.179843165,34.251595548],[-114.152893707,34.264455083],[-114.152893707,34.315875044],[-114.179843165,34.328725488],[-114.184334742,34.347996351],[-114.301115729,34.39936589],[-114.305607305,34.418620509],[-114.346031493,34.437871437],[-114.368489375,34.431455201],[-114.39993041,34.450703172],[-114.947902733,34.450703172],[-114.965869039,34.463532196],[-115.392568799,34.457117931],[-115.410535104,34.469945969],[-115.55426555,34.469945969],[-115.572231856,34.457117931],[-115.662063384,34.457117931],[-115.68002969,34.469945969],[-115.998931615,34.463532196],[-116.016897921,34.476359989],[-117.485643411,34.469945969],[-117.454202376,34.425038472],[-117.458693952,34.341573222],[-117.413778188,34.290168997],[-117.413778188,34.264455083],[-117.373354,34.245164301],[-117.350896118,34.251595548],[-117.305980354,34.225869839],[-117.283522472,34.232301817],[-117.243098284,34.213003665],[-117.211657249,34.232301817],[-117.148775179,34.232301817],[-117.121825721,34.219436626],[-117.117334144,34.20013627],[-117.094876262,34.206570213],[-117.090384686,34.187266167],[-117.067926804,34.180830751],[-117.027502616,34.20013627],[-117.027502616,34.238733305],[-116.973603699,34.264455083],[-116.969112122,34.283741441],[-116.94665424,34.290168997],[-116.915213205,34.270884113],[-116.892755323,34.277313394],[-116.892755323,34.315875044],[-116.879280594,34.322300141],[-116.861314288,34.296596061],[-116.838856406,34.290168997],[-116.811906948,34.303023375],[-116.807415371,34.283741441],[-116.77148276,34.270884113],[-116.77148276,34.245164301],[-116.753516454,34.232301817],[-116.77148276,34.219436626],[-116.766991183,34.20013627],[-116.699617537,34.167957702],[-116.740041725,34.148645563],[-116.740041725,34.122888431],[-116.569361821,34.122888431],[-116.564870244,34.167957702],[-116.524446057,34.174394843],[-116.524446057,34.238733305],[-116.272917777,34.238733305],[-116.254951471,34.225869839],[-116.228002013,34.238733305],[-116.192069402,34.238733305],[-116.174103096,34.225869839],[-116.111221026,34.225869839],[-116.09325472,34.238733305],[-116.09325472,34.264455083],[-116.070796838,34.270884113],[-116.066305262,34.251595548],[-116.025881074,34.232301817],[-116.025881074,34.206570213],[-115.998931615,34.193701092],[-115.962999004,34.193701092],[-115.958507428,34.148645563],[-115.909100087,34.155083433],[-115.891133781,34.142206458],[-115.85520117,34.142206458],[-115.828251712,34.155083433],[-115.810285406,34.142206458],[-115.747403336,34.142206458],[-115.747403336,34.039123002],[-115.706979148,34.019781443]]]],"type":"MultiPolygon"},"type":"Feature","properties":{"identifier":{"@type":"PropertyValue","propertyID":"datasetId","value":"CA_FEMAR9Southeast_1_D24"},"name":"CA FEMAR9Southeast 1 D24"}}