{"geometry":{"coordinates":[[[[-102.459918912,38.85807797],[-102.379070536,38.85807797],[-102.361104231,38.870193328],[-102.334154772,38.85807797],[-102.028727576,38.85807797],[-102.024235999,38.888362145],[-102.042202305,38.900471643],[-102.042202305,38.924685142],[-102.024235999,38.936789143],[-102.024235999,39.033543983],[-102.042202305,39.04562869],[-102.042202305,39.0697926],[-102.024235999,39.081871802],[-102.024235999,39.166365521],[-102.042202305,39.178428176],[-102.042202305,39.202546582],[-102.024235999,39.214602332],[-102.024235999,39.310976597],[-102.042202305,39.323014409],[-102.042202305,39.347083125],[-102.024235999,39.359114028],[-102.028727576,39.38918361],[-102.172458021,39.401207261],[-102.176949597,39.383170313],[-102.293730584,39.395195695],[-102.325171619,39.377157192],[-102.352121078,39.38918361],[-102.441952606,39.38918361],[-102.446444183,39.371143554],[-102.473393641,39.383170313],[-102.56322517,39.383170313],[-102.594666205,39.365129397],[-102.621615663,39.377157192],[-102.684497733,39.377157192],[-102.715938768,39.359114028],[-102.832719755,39.371143554],[-102.86416079,39.353098835],[-102.92704286,39.353098835],[-102.945009165,39.365129397],[-103.061790152,39.365129397],[-103.093231187,39.347083125],[-103.120180646,39.359114028],[-103.169587986,39.353098835],[-103.169587986,39.136200878],[-103.187554292,39.124130982],[-103.187554292,39.063752572],[-103.169587986,39.051670268],[-103.169587986,39.01541235],[-103.187554292,39.003321778],[-103.187554292,38.94284002],[-103.169587986,38.930737051],[-103.169587986,38.906525617],[-103.183062716,38.888362145],[-103.156113257,38.876249883],[-102.635090392,38.876249883],[-102.617124087,38.864136257],[-102.48686837,38.870193328],[-102.459918912,38.85807797]]]],"type":"MultiPolygon"},"type":"Feature","properties":{"identifier":{"@type":"PropertyValue","propertyID":"datasetId","value":"CO_CentralEasternPlains_3_2020"},"name":"CO CentralEasternPlains 3 2020"}}